{
  "type": "FeatureCollection",
  "features": [
    {
      "type": "Feature",
      "properties": {
        "norad_id": 66456,
        "name": "STARLINK-35643",
        "group": "last-30-days",
        "lat": 42.76785899808577,
        "lon": -175.03885019267017,
        "alt_km": 427.51156434579116,
        "timestamp": "2025-12-07T11:27:48.739705+00:00",
        "meta_object_name": "STARLINK-35643",
        "meta_object_id": "2025-262A",
        "meta_epoch": "2025-12-07T00:00:02.000160",
        "meta_mean_motion": 15.46549451,
        "meta_eccentricity": 0.00014594,
        "meta_inclination": 43.0007,
        "meta_ra_of_asc_node": 104.7136,
        "meta_arg_of_pericenter": 273.5229,
        "meta_mean_anomaly": 30.8563,
        "meta_ephemeris_type": 0,
        "meta_classification_type": "U",
        "meta_norad_cat_id": 66456,
        "meta_element_set_no": 999,
        "meta_rev_at_epoch": 471,
        "meta_bstar": -0.046118595,
        "meta_mean_motion_dot": -0.02084828,
        "meta_mean_motion_ddot": 0,
        "tle_line1": "1 66456U 25262A   25341.00002315 -.02084828  00000+0 -46119-1 0  9995",
        "tle_line2": "2 66456  43.0007 104.7136 0001459 273.5229  30.8563 15.46549451  4715"
      },
      "geometry": {
        "type": "Point",
        "coordinates": [
          -175.03885019267017,
          42.76785899808577
        ]
      }
    },
    {
      "type": "Feature",
      "properties": {
        "norad_id": 66457,
        "name": "STARLINK-35466",
        "group": "last-30-days",
        "lat": 42.31000715379469,
        "lon": -155.72545032503587,
        "alt_km": 419.8383952339227,
        "timestamp": "2025-12-07T11:27:48.739716+00:00",
        "meta_object_name": "STARLINK-35466",
        "meta_object_id": "2025-262B",
        "meta_epoch": "2025-12-07T00:00:02.000160",
        "meta_mean_motion": 15.49231002,
        "meta_eccentricity": 0.00014343,
        "meta_inclination": 43.0009,
        "meta_ra_of_asc_node": 104.6895,
        "meta_arg_of_pericenter": 266.5975,
        "meta_mean_anomaly": 47.4106,
        "meta_ephemeris_type": 0,
        "meta_classification_type": "U",
        "meta_norad_cat_id": 66457,
        "meta_element_set_no": 999,
        "meta_rev_at_epoch": 471,
        "meta_bstar": -0.042736151,
        "meta_mean_motion_dot": -0.02119083,
        "meta_mean_motion_ddot": 0,
        "tle_line1": "1 66457U 25262B   25341.00002315 -.02119083  00000+0 -42736-1 0  9999",
        "tle_line2": "2 66457  43.0009 104.6895 0001434 266.5975  47.4106 15.49231002  4712"
      },
      "geometry": {
        "type": "Point",
        "coordinates": [
          -155.72545032503587,
          42.31000715379469
        ]
      }
    },
    {
      "type": "Feature",
      "properties": {
        "norad_id": 66458,
        "name": "STARLINK-35684",
        "group": "last-30-days",
        "lat": 42.92105559534689,
        "lon": -164.3862492100187,
        "alt_km": 423.64036522552124,
        "timestamp": "2025-12-07T11:27:48.739726+00:00",
        "meta_object_name": "STARLINK-35684",
        "meta_object_id": "2025-262C",
        "meta_epoch": "2025-12-07T00:00:02.000160",
        "meta_mean_motion": 15.47905282,
        "meta_eccentricity": 0.0001397,
        "meta_inclination": 43.0008,
        "meta_ra_of_asc_node": 104.6994,
        "meta_arg_of_pericenter": 266.5163,
        "meta_mean_anomaly": 43.3797,
        "meta_ephemeris_type": 0,
        "meta_classification_type": "U",
        "meta_norad_cat_id": 66458,
        "meta_element_set_no": 999,
        "meta_rev_at_epoch": 471,
        "meta_bstar": -0.04492357,
        "meta_mean_motion_dot": -0.02124579,
        "meta_mean_motion_ddot": 0,
        "tle_line1": "1 66458U 25262C   25341.00002315 -.02124579  00000+0 -44924-1 0  9997",
        "tle_line2": "2 66458  43.0008 104.6994 0001397 266.5163  43.3797 15.47905282  4716"
      },
      "geometry": {
        "type": "Point",
        "coordinates": [
          -164.3862492100187,
          42.92105559534689
        ]
      }
    },
    {
      "type": "Feature",
      "properties": {
        "norad_id": 66459,
        "name": "STARLINK-35449",
        "group": "last-30-days",
        "lat": 41.3909881657537,
        "lon": -149.15193949751702,
        "alt_km": 415.99062024046725,
        "timestamp": "2025-12-07T11:27:48.739739+00:00",
        "meta_object_name": "STARLINK-35449",
        "meta_object_id": "2025-262D",
        "meta_epoch": "2025-12-07T00:00:02.000160",
        "meta_mean_motion": 15.50565623,
        "meta_eccentricity": 0.00013446,
        "meta_inclination": 43.0007,
        "meta_ra_of_asc_node": 104.6823,
        "meta_arg_of_pericenter": 271.0347,
        "meta_mean_anomaly": 45.6491,
        "meta_ephemeris_type": 0,
        "meta_classification_type": "U",
        "meta_norad_cat_id": 66459,
        "meta_element_set_no": 999,
        "meta_rev_at_epoch": 471,
        "meta_bstar": -0.040643282,
        "meta_mean_motion_dot": -0.02114418,
        "meta_mean_motion_ddot": 0,
        "tle_line1": "1 66459U 25262D   25341.00002315 -.02114418  00000+0 -40643-1 0  9993",
        "tle_line2": "2 66459  43.0007 104.6823 0001344 271.0347  45.6491 15.50565623  4715"
      },
      "geometry": {
        "type": "Point",
        "coordinates": [
          -149.15193949751702,
          41.3909881657537
        ]
      }
    },
    {
      "type": "Feature",
      "properties": {
        "norad_id": 66460,
        "name": "STARLINK-35424",
        "group": "last-30-days",
        "lat": 40.50206111430704,
        "lon": -144.54832458025675,
        "alt_km": 411.42916001779304,
        "timestamp": "2025-12-07T11:27:48.739751+00:00",
        "meta_object_name": "STARLINK-35424",
        "meta_object_id": "2025-262E",
        "meta_epoch": "2025-12-07T00:00:02.000160",
        "meta_mean_motion": 15.50866995,
        "meta_eccentricity": 0.00017979,
        "meta_inclination": 43.0008,
        "meta_ra_of_asc_node": 104.6774,
        "meta_arg_of_pericenter": 269.7027,
        "meta_mean_anomaly": 48.8655,
        "meta_ephemeris_type": 0,
        "meta_classification_type": "U",
        "meta_norad_cat_id": 66460,
        "meta_element_set_no": 999,
        "meta_rev_at_epoch": 471,
        "meta_bstar": -0.014893441,
        "meta_mean_motion_dot": -0.00809572,
        "meta_mean_motion_ddot": 0,
        "tle_line1": "1 66460U 25262E   25341.00002315 -.00809572  00000+0 -14893-1 0  9993",
        "tle_line2": "2 66460  43.0008 104.6774 0001797 269.7027  48.8655 15.50866995  4717"
      },
      "geometry": {
        "type": "Point",
        "coordinates": [
          -144.54832458025675,
          40.50206111430704
        ]
      }
    },
    {
      "type": "Feature",
      "properties": {
        "norad_id": 66461,
        "name": "STARLINK-35132",
        "group": "last-30-days",
        "lat": 39.869352047577884,
        "lon": -141.79664422016359,
        "alt_km": 409.55148832625036,
        "timestamp": "2025-12-07T11:27:48.739761+00:00",
        "meta_object_name": "STARLINK-35132",
        "meta_object_id": "2025-262F",
        "meta_epoch": "2025-12-07T00:00:02.000160",
        "meta_mean_motion": 15.50591265,
        "meta_eccentricity": 0.00013255,
        "meta_inclination": 43.0006,
        "meta_ra_of_asc_node": 104.672,
        "meta_arg_of_pericenter": 264.3945,
        "meta_mean_anomaly": 56.1479,
        "meta_ephemeris_type": 0,
        "meta_classification_type": "U",
        "meta_norad_cat_id": 66461,
        "meta_element_set_no": 999,
        "meta_rev_at_epoch": 471,
        "meta_bstar": -0.0004165329,
        "meta_mean_motion_dot": -0.00024711,
        "meta_mean_motion_ddot": 0,
        "tle_line1": "1 66461U 25262F   25341.00002315 -.00024711  00000+0 -41653-3 0  9994",
        "tle_line2": "2 66461  43.0006 104.6720 0001325 264.3945  56.1479 15.50591265  4715"
      },
      "geometry": {
        "type": "Point",
        "coordinates": [
          -141.79664422016359,
          39.869352047577884
        ]
      }
    },
    {
      "type": "Feature",
      "properties": {
        "norad_id": 66462,
        "name": "STARLINK-35499",
        "group": "last-30-days",
        "lat": 39.27512356675929,
        "lon": -139.47468646810862,
        "alt_km": 409.92738041220764,
        "timestamp": "2025-12-07T11:27:48.739771+00:00",
        "meta_object_name": "STARLINK-35499",
        "meta_object_id": "2025-262G",
        "meta_epoch": "2025-12-07T00:00:02.000160",
        "meta_mean_motion": 15.50633867,
        "meta_eccentricity": 0.00014914,
        "meta_inclination": 43.0009,
        "meta_ra_of_asc_node": 104.6674,
        "meta_arg_of_pericenter": 263.144,
        "meta_mean_anomaly": 59.3069,
        "meta_ephemeris_type": 0,
        "meta_classification_type": "U",
        "meta_norad_cat_id": 66462,
        "meta_element_set_no": 999,
        "meta_rev_at_epoch": 471,
        "meta_bstar": -0.0023574789,
        "meta_mean_motion_dot": -0.00136527,
        "meta_mean_motion_ddot": 0,
        "tle_line1": "1 66462U 25262G   25341.00002315 -.00136527  00000+0 -23575-2 0  9996",
        "tle_line2": "2 66462  43.0009 104.6674 0001491 263.1440  59.3069 15.50633867  4713"
      },
      "geometry": {
        "type": "Point",
        "coordinates": [
          -139.47468646810862,
          39.27512356675929
        ]
      }
    }
  ]
}